{"type":"FeatureCollection","features":[{"type":"Feature","properties":{},"geometry":{"coordinates":[[[140.6692807721845,-2.6062612850557514],[140.66870142157632,-2.605631765907333],[140.6686180764018,-2.605700809958506],[140.66863230608027,-2.6057231477942935],[140.66845138606664,-2.6059444948693624],[140.66838836898268,-2.6059993239562402],[140.66858758427878,-2.606198333211111],[140.6685306656231,-2.6062572236983783],[140.6688579478951,-2.606602443744876],[140.66904496633697,-2.6064095266721807],[140.66912627870363,-2.6063465747784704],[140.6692807721845,-2.6062612850557514]]],"type":"Polygon"}}]}